BEIDOU-2 IGSO-7         
1 43539U 18057A   25334.45598689 -.00000023  00000+0  00000+0 0  9990
2 43539  55.1734 164.7799 0092417 235.1447 305.3801  1.00260493 27131
BEIDOU-3 M5             
1 43581U 18062A   25333.89659917  .00000108  00000+0  00000+0 0  9995
2 43581  54.0892 189.0808 0002139 349.4909  10.5941  1.86228566 49926
BEIDOU-3 M6             
1 43582U 18062B   25333.75974199  .00000107  00000+0  00000+0 0  9992
2 43582  54.0888 189.0746 0007652  45.4041 314.7474  1.86229617 49926
BEIDOU-3 M12            
1 43602U 18067A   25334.23439325  .00000113  00000+0  00000+0 0  9998
2 43602  54.1831 187.7878 0009129  40.2994 319.8581  1.86227633 49415
BEIDOU-3 M11            
1 43603U 18067B   25333.83190650  .00000110  00000+0  00000+0 0  9996
2 43603  54.1805 187.7656 0005557  35.6802 324.4454  1.86227148 49432
BEIDOU-3 M13            
1 43622U 18072A   25334.32542020 -.00000033  00000+0  00000+0 0  9995
2 43622  56.4483  69.2316 0005516 298.7431  61.2079  1.86230738 48956
BEIDOU-3 M14            
1 43623U 18072B   25334.72784049 -.00000036  00000+0  00000+0 0  9992
2 43623  56.4504  69.2122 0002999 336.7685  23.2232  1.86230732 48955
BEIDOU-3 M16            
1 43647U 18078A   25334.34890228 -.00000052  00000+0  00000+0 0  9997
2 43647  54.2735 306.9545 0006919  18.1707 341.8498  1.86232157 48456
