{
  "type": "FeatureCollection",
  "features": [
    {
      "type": "Feature",
      "properties": {
        "norad_id": 43539,
        "name": "BEIDOU-2 IGSO-7 (C16)",
        "group": "beidou",
        "lat": NaN,
        "lon": NaN,
        "alt_km": NaN,
        "timestamp": "2025-12-01T03:12:44.532337+00:00",
        "meta": {
          "OBJECT_NAME": "BEIDOU-2 IGSO-7 (C16)",
          "OBJECT_ID": "2018-057A",
          "EPOCH": "2025-11-30T10:56:37.267296",
          "MEAN_MOTION": 1.00260493,
          "ECCENTRICITY": 0.00924173,
          "INCLINATION": 55.1734,
          "RA_OF_ASC_NODE": 164.7799,
          "ARG_OF_PERICENTER": 235.1447,
          "MEAN_ANOMALY": 305.3801,
          "EPHEMERIS_TYPE": 0,
          "CLASSIFICATION_TYPE": "U",
          "NORAD_CAT_ID": 43539,
          "ELEMENT_SET_NO": 999,
          "REV_AT_EPOCH": 2713,
          "BSTAR": 0,
          "MEAN_MOTION_DOT": -2.3e-07,
          "MEAN_MOTION_DDOT": 0
        }
      },
      "geometry": {
        "type": "Point",
        "coordinates": [
          NaN,
          NaN
        ]
      }
    },
    {
      "type": "Feature",
      "properties": {
        "norad_id": 43581,
        "name": "BEIDOU-3 M5 (C23)",
        "group": "beidou",
        "lat": NaN,
        "lon": NaN,
        "alt_km": NaN,
        "timestamp": "2025-12-01T03:12:44.532753+00:00",
        "meta": {
          "OBJECT_NAME": "BEIDOU-3 M5 (C23)",
          "OBJECT_ID": "2018-062A",
          "EPOCH": "2025-11-29T21:31:06.168288",
          "MEAN_MOTION": 1.86228566,
          "ECCENTRICITY": 0.00021395,
          "INCLINATION": 54.0892,
          "RA_OF_ASC_NODE": 189.0808,
          "ARG_OF_PERICENTER": 349.4909,
          "MEAN_ANOMALY": 10.5941,
          "EPHEMERIS_TYPE": 0,
          "CLASSIFICATION_TYPE": "U",
          "NORAD_CAT_ID": 43581,
          "ELEMENT_SET_NO": 999,
          "REV_AT_EPOCH": 4992,
          "BSTAR": 0,
          "MEAN_MOTION_DOT": 1.08e-06,
          "MEAN_MOTION_DDOT": 0
        }
      },
      "geometry": {
        "type": "Point",
        "coordinates": [
          NaN,
          NaN
        ]
      }
    },
    {
      "type": "Feature",
      "properties": {
        "norad_id": 43582,
        "name": "BEIDOU-3 M6 (C24)",
        "group": "beidou",
        "lat": NaN,
        "lon": NaN,
        "alt_km": NaN,
        "timestamp": "2025-12-01T03:12:44.532759+00:00",
        "meta": {
          "OBJECT_NAME": "BEIDOU-3 M6 (C24)",
          "OBJECT_ID": "2018-062B",
          "EPOCH": "2025-11-29T18:14:01.707936",
          "MEAN_MOTION": 1.86229617,
          "ECCENTRICITY": 0.00076529,
          "INCLINATION": 54.0888,
          "RA_OF_ASC_NODE": 189.0746,
          "ARG_OF_PERICENTER": 45.4041,
          "MEAN_ANOMALY": 314.7474,
          "EPHEMERIS_TYPE": 0,
          "CLASSIFICATION_TYPE": "U",
          "NORAD_CAT_ID": 43582,
          "ELEMENT_SET_NO": 999,
          "REV_AT_EPOCH": 4992,
          "BSTAR": 0,
          "MEAN_MOTION_DOT": 1.07e-06,
          "MEAN_MOTION_DDOT": 0
        }
      },
      "geometry": {
        "type": "Point",
        "coordinates": [
          NaN,
          NaN
        ]
      }
    },
    {
      "type": "Feature",
      "properties": {
        "norad_id": 43602,
        "name": "BEIDOU-3 M12 (C26)",
        "group": "beidou",
        "lat": NaN,
        "lon": NaN,
        "alt_km": NaN,
        "timestamp": "2025-12-01T03:12:44.532765+00:00",
        "meta": {
          "OBJECT_NAME": "BEIDOU-3 M12 (C26)",
          "OBJECT_ID": "2018-067A",
          "EPOCH": "2025-11-30T05:37:31.576800",
          "MEAN_MOTION": 1.86227633,
          "ECCENTRICITY": 0.00091293,
          "INCLINATION": 54.1831,
          "RA_OF_ASC_NODE": 187.7878,
          "ARG_OF_PERICENTER": 40.2994,
          "MEAN_ANOMALY": 319.8581,
          "EPHEMERIS_TYPE": 0,
          "CLASSIFICATION_TYPE": "U",
          "NORAD_CAT_ID": 43602,
          "ELEMENT_SET_NO": 999,
          "REV_AT_EPOCH": 4941,
          "BSTAR": 0,
          "MEAN_MOTION_DOT": 1.13e-06,
          "MEAN_MOTION_DDOT": 0
        }
      },
      "geometry": {
        "type": "Point",
        "coordinates": [
          NaN,
          NaN
        ]
      }
    },
    {
      "type": "Feature",
      "properties": {
        "norad_id": 43603,
        "name": "BEIDOU-3 M11 (C25)",
        "group": "beidou",
        "lat": NaN,
        "lon": NaN,
        "alt_km": NaN,
        "timestamp": "2025-12-01T03:12:44.532771+00:00",
        "meta": {
          "OBJECT_NAME": "BEIDOU-3 M11 (C25)",
          "OBJECT_ID": "2018-067B",
          "EPOCH": "2025-11-29T19:57:56.721600",
          "MEAN_MOTION": 1.86227148,
          "ECCENTRICITY": 0.00055574,
          "INCLINATION": 54.1805,
          "RA_OF_ASC_NODE": 187.7656,
          "ARG_OF_PERICENTER": 35.6802,
          "MEAN_ANOMALY": 324.4454,
          "EPHEMERIS_TYPE": 0,
          "CLASSIFICATION_TYPE": "U",
          "NORAD_CAT_ID": 43603,
          "ELEMENT_SET_NO": 999,
          "REV_AT_EPOCH": 4943,
          "BSTAR": 0,
          "MEAN_MOTION_DOT": 1.1e-06,
          "MEAN_MOTION_DDOT": 0
        }
      },
      "geometry": {
        "type": "Point",
        "coordinates": [
          NaN,
          NaN
        ]
      }
    },
    {
      "type": "Feature",
      "properties": {
        "norad_id": 43622,
        "name": "BEIDOU-3 M13 (C32)",
        "group": "beidou",
        "lat": NaN,
        "lon": NaN,
        "alt_km": NaN,
        "timestamp": "2025-12-01T03:12:44.532777+00:00",
        "meta": {
          "OBJECT_NAME": "BEIDOU-3 M13 (C32)",
          "OBJECT_ID": "2018-072A",
          "EPOCH": "2025-11-30T07:48:36.305280",
          "MEAN_MOTION": 1.86230738,
          "ECCENTRICITY": 0.00055162,
          "INCLINATION": 56.4483,
          "RA_OF_ASC_NODE": 69.2316,
          "ARG_OF_PERICENTER": 298.7431,
          "MEAN_ANOMALY": 61.2079,
          "EPHEMERIS_TYPE": 0,
          "CLASSIFICATION_TYPE": "U",
          "NORAD_CAT_ID": 43622,
          "ELEMENT_SET_NO": 999,
          "REV_AT_EPOCH": 4895,
          "BSTAR": 0,
          "MEAN_MOTION_DOT": -3.3e-07,
          "MEAN_MOTION_DDOT": 0
        }
      },
      "geometry": {
        "type": "Point",
        "coordinates": [
          NaN,
          NaN
        ]
      }
    },
    {
      "type": "Feature",
      "properties": {
        "norad_id": 43623,
        "name": "BEIDOU-3 M14 (C33)",
        "group": "beidou",
        "lat": NaN,
        "lon": NaN,
        "alt_km": NaN,
        "timestamp": "2025-12-01T03:12:44.532783+00:00",
        "meta": {
          "OBJECT_NAME": "BEIDOU-3 M14 (C33)",
          "OBJECT_ID": "2018-072B",
          "EPOCH": "2025-11-30T17:28:05.418336",
          "MEAN_MOTION": 1.86230732,
          "ECCENTRICITY": 0.0002999,
          "INCLINATION": 56.4504,
          "RA_OF_ASC_NODE": 69.2122,
          "ARG_OF_PERICENTER": 336.7685,
          "MEAN_ANOMALY": 23.2232,
          "EPHEMERIS_TYPE": 0,
          "CLASSIFICATION_TYPE": "U",
          "NORAD_CAT_ID": 43623,
          "ELEMENT_SET_NO": 999,
          "REV_AT_EPOCH": 4895,
          "BSTAR": 0,
          "MEAN_MOTION_DOT": -3.6e-07,
          "MEAN_MOTION_DDOT": 0
        }
      },
      "geometry": {
        "type": "Point",
        "coordinates": [
          NaN,
          NaN
        ]
      }
    },
    {
      "type": "Feature",
      "properties": {
        "norad_id": 43647,
        "name": "BEIDOU-3 M16 (C35)",
        "group": "beidou",
        "lat": NaN,
        "lon": NaN,
        "alt_km": NaN,
        "timestamp": "2025-12-01T03:12:44.532790+00:00",
        "meta": {
          "OBJECT_NAME": "BEIDOU-3 M16 (C35)",
          "OBJECT_ID": "2018-078A",
          "EPOCH": "2025-11-30T08:22:25.156992",
          "MEAN_MOTION": 1.86232157,
          "ECCENTRICITY": 0.0006919,
          "INCLINATION": 54.2735,
          "RA_OF_ASC_NODE": 306.9545,
          "ARG_OF_PERICENTER": 18.1707,
          "MEAN_ANOMALY": 341.8498,
          "EPHEMERIS_TYPE": 0,
          "CLASSIFICATION_TYPE": "U",
          "NORAD_CAT_ID": 43647,
          "ELEMENT_SET_NO": 999,
          "REV_AT_EPOCH": 4845,
          "BSTAR": 0,
          "MEAN_MOTION_DOT": -5.2e-07,
          "MEAN_MOTION_DDOT": 0
        }
      },
      "geometry": {
        "type": "Point",
        "coordinates": [
          NaN,
          NaN
        ]
      }
    }
  ]
}